{
  "type": "FeatureCollection",
  "features": [
    {
      "type": "Feature",
      "properties": {
        "norad_id": 67012,
        "name": "STARLINK-36175",
        "group": "last-30-days",
        "lat": 45.75446482156336,
        "lon": 102.78953731721452,
        "alt_km": 285.327605609833,
        "timestamp": "2025-12-19T06:59:42.653105+00:00",
        "meta_object_name": "STARLINK-36175",
        "meta_object_id": "2025-293K",
        "meta_epoch": "2025-12-17T20:00:01.999872",
        "meta_mean_motion": 15.97689454,
        "meta_eccentricity": 0.00041397,
        "meta_inclination": 69.9934,
        "meta_ra_of_asc_node": 309.0186,
        "meta_arg_of_pericenter": 268.0112,
        "meta_mean_anomaly": 125.4057,
        "meta_ephemeris_type": 0,
        "meta_classification_type": "U",
        "meta_norad_cat_id": 67012,
        "meta_element_set_no": 999,
        "meta_rev_at_epoch": 238,
        "meta_bstar": -0.0021669699,
        "meta_mean_motion_dot": -0.00974747,
        "meta_mean_motion_ddot": 0.00030584746,
        "tle_line1": "1 67012U 25293K   25351.83335648 -.00974747  30585-3 -21670-2 0  9995",
        "tle_line2": "2 67012  69.9934 309.0186 0004139 268.0112 125.4057 15.97689454  2387"
      },
      "geometry": {
        "type": "Point",
        "coordinates": [
          102.78953731721452,
          45.75446482156336
        ]
      }
    },
    {
      "type": "Feature",
      "properties": {
        "norad_id": 67013,
        "name": "STARLINK-35856",
        "group": "last-30-days",
        "lat": 44.44208438887476,
        "lon": 103.81808926338638,
        "alt_km": 286.78691860047,
        "timestamp": "2025-12-19T06:59:42.653116+00:00",
        "meta_object_name": "STARLINK-35856",
        "meta_object_id": "2025-293L",
        "meta_epoch": "2025-12-18T22:00:00.999936",
        "meta_mean_motion": 15.95482084,
        "meta_eccentricity": 0.00039215,
        "meta_inclination": 69.9943,
        "meta_ra_of_asc_node": 305.8473,
        "meta_arg_of_pericenter": 266.793,
        "meta_mean_anomaly": 233.5524,
        "meta_ephemeris_type": 0,
        "meta_classification_type": "U",
        "meta_norad_cat_id": 67013,
        "meta_element_set_no": 999,
        "meta_rev_at_epoch": 130,
        "meta_bstar": -0.0029177907,
        "meta_mean_motion_dot": -0.0116196,
        "meta_mean_motion_ddot": 0.00041316964,
        "tle_line1": "1 67013U 25293L   25352.91667824 -.01161960  41317-3 -29178-2 0  9992",
        "tle_line2": "2 67013  69.9943 305.8473 0003921 266.7930 233.5524 15.95482084  1301"
      },
      "geometry": {
        "type": "Point",
        "coordinates": [
          103.81808926338638,
          44.44208438887476
        ]
      }
    },
    {
      "type": "Feature",
      "properties": {
        "norad_id": 67014,
        "name": "STARLINK-36207",
        "group": "last-30-days",
        "lat": 42.49794208996055,
        "lon": 105.2492728139726,
        "alt_km": 286.9345865425994,
        "timestamp": "2025-12-19T06:59:42.653126+00:00",
        "meta_object_name": "STARLINK-36207",
        "meta_object_id": "2025-293M",
        "meta_epoch": "2025-12-18T22:00:00.999936",
        "meta_mean_motion": 15.95555335,
        "meta_eccentricity": 0.00039089,
        "meta_inclination": 69.995,
        "meta_ra_of_asc_node": 305.844,
        "meta_arg_of_pericenter": 269.7063,
        "meta_mean_anomaly": 232.7503,
        "meta_ephemeris_type": 0,
        "meta_classification_type": "U",
        "meta_norad_cat_id": 67014,
        "meta_element_set_no": 999,
        "meta_rev_at_epoch": 130,
        "meta_bstar": -0.0029501054,
        "meta_mean_motion_dot": -0.01179289,
        "meta_mean_motion_ddot": 0.0004249307,
        "tle_line1": "1 67014U 25293M   25352.91667824 -.01179289  42493-3 -29501-2 0  9992",
        "tle_line2": "2 67014  69.9950 305.8440 0003908 269.7063 232.7503 15.95555335  1307"
      },
      "geometry": {
        "type": "Point",
        "coordinates": [
          105.2492728139726,
          42.49794208996055
        ]
      }
    },
    {
      "type": "Feature",
      "properties": {
        "norad_id": 67015,
        "name": "STARLINK-36093",
        "group": "last-30-days",
        "lat": 38.61517589779856,
        "lon": 107.82676053697205,
        "alt_km": 286.9437994150685,
        "timestamp": "2025-12-19T06:59:42.653139+00:00",
        "meta_object_name": "STARLINK-36093",
        "meta_object_id": "2025-293N",
        "meta_epoch": "2025-12-18T22:00:00.999936",
        "meta_mean_motion": 15.95679118,
        "meta_eccentricity": 0.00039239,
        "meta_inclination": 69.9946,
        "meta_ra_of_asc_node": 305.8388,
        "meta_arg_of_pericenter": 266.3082,
        "meta_mean_anomaly": 240.3305,
        "meta_ephemeris_type": 0,
        "meta_classification_type": "U",
        "meta_norad_cat_id": 67015,
        "meta_element_set_no": 999,
        "meta_rev_at_epoch": 130,
        "meta_bstar": -0.0029377139,
        "meta_mean_motion_dot": -0.01182163,
        "meta_mean_motion_ddot": 0.00042739382,
        "tle_line1": "1 67015U 25293N   25352.91667824 -.01182163  42739-3 -29377-2 0  9992",
        "tle_line2": "2 67015  69.9946 305.8388 0003923 266.3082 240.3305 15.95679118  1306"
      },
      "geometry": {
        "type": "Point",
        "coordinates": [
          107.82676053697205,
          38.61517589779856
        ]
      }
    },
    {
      "type": "Feature",
      "properties": {
        "norad_id": 67016,
        "name": "STARLINK-36120",
        "group": "last-30-days",
        "lat": 40.68559215252705,
        "lon": 106.49455705644608,
        "alt_km": 286.86074897591243,
        "timestamp": "2025-12-19T06:59:42.653152+00:00",
        "meta_object_name": "STARLINK-36120",
        "meta_object_id": "2025-293P",
        "meta_epoch": "2025-12-18T22:00:00.999936",
        "meta_mean_motion": 15.95609358,
        "meta_eccentricity": 0.00038967,
        "meta_inclination": 69.9948,
        "meta_ra_of_asc_node": 305.8416,
        "meta_arg_of_pericenter": 266.1264,
        "meta_mean_anomaly": 238.2935,
        "meta_ephemeris_type": 0,
        "meta_classification_type": "U",
        "meta_norad_cat_id": 67016,
        "meta_element_set_no": 999,
        "meta_rev_at_epoch": 130,
        "meta_bstar": -0.0029309863,
        "meta_mean_motion_dot": -0.0117509,
        "meta_mean_motion_ddot": 0.00042238204,
        "tle_line1": "1 67016U 25293P   25352.91667824 -.01175090  42238-3 -29310-2 0  9995",
        "tle_line2": "2 67016  69.9948 305.8416 0003896 266.1264 238.2935 15.95609358  1304"
      },
      "geometry": {
        "type": "Point",
        "coordinates": [
          106.49455705644608,
          40.68559215252705
        ]
      }
    },
    {
      "type": "Feature",
      "properties": {
        "norad_id": 67017,
        "name": "STARLINK-35498",
        "group": "last-30-days",
        "lat": 36.67839944152834,
        "lon": 108.99820848460662,
        "alt_km": 287.0565506413632,
        "timestamp": "2025-12-19T06:59:42.653162+00:00",
        "meta_object_name": "STARLINK-35498",
        "meta_object_id": "2025-293Q",
        "meta_epoch": "2025-12-18T22:00:00.999936",
        "meta_mean_motion": 15.95743982,
        "meta_eccentricity": 0.00039079,
        "meta_inclination": 69.9944,
        "meta_ra_of_asc_node": 305.8373,
        "meta_arg_of_pericenter": 267.8178,
        "meta_mean_anomaly": 240.8812,
        "meta_ephemeris_type": 0,
        "meta_classification_type": "U",
        "meta_norad_cat_id": 67017,
        "meta_element_set_no": 999,
        "meta_rev_at_epoch": 130,
        "meta_bstar": -0.0029415122,
        "meta_mean_motion_dot": -0.01187772,
        "meta_mean_motion_ddot": 0.00043143371,
        "tle_line1": "1 67017U 25293Q   25352.91667824 -.01187772  43143-3 -29415-2 0  9998",
        "tle_line2": "2 67017  69.9944 305.8373 0003907 267.8178 240.8812 15.95743982  1303"
      },
      "geometry": {
        "type": "Point",
        "coordinates": [
          108.99820848460662,
          36.67839944152834
        ]
      }
    },
    {
      "type": "Feature",
      "properties": {
        "norad_id": 67018,
        "name": "STARLINK-36106",
        "group": "last-30-days",
        "lat": 34.01810063131738,
        "lon": 110.50342394918384,
        "alt_km": 285.5029628815928,
        "timestamp": "2025-12-19T06:59:42.653174+00:00",
        "meta_object_name": "STARLINK-36106",
        "meta_object_id": "2025-293R",
        "meta_epoch": "2025-12-18T22:52:27.954912",
        "meta_mean_motion": 15.95945427,
        "meta_eccentricity": 0.00051513,
        "meta_inclination": 69.9939,
        "meta_ra_of_asc_node": 305.7285,
        "meta_arg_of_pericenter": 272.0477,
        "meta_mean_anomaly": 88.0142,
        "meta_ephemeris_type": 0,
        "meta_classification_type": "U",
        "meta_norad_cat_id": 67018,
        "meta_element_set_no": 999,
        "meta_rev_at_epoch": 260,
        "meta_bstar": -0.00053313418,
        "meta_mean_motion_dot": -0.00219904,
        "meta_mean_motion_ddot": 2.0815056e-05,
        "tle_line1": "1 67018U 25293R   25352.95310133 -.00219904  20815-4 -53313-3 0  9990",
        "tle_line2": "2 67018  69.9939 305.7285 0005151 272.0477  88.0142 15.95945427  2602"
      },
      "geometry": {
        "type": "Point",
        "coordinates": [
          110.50342394918384,
          34.01810063131738
        ]
      }
    }
  ]
}